{
  "type": "FeatureCollection",
  "features": [
    {
      "type": "Feature",
      "properties": {
        "norad_id": 41581,
        "name": "INTELSAT 31 (IS-31)",
        "group": "intelsat",
        "lat": -0.023062526816197814,
        "lon": -114.09060684884108,
        "alt_km": 35778.794710787086,
        "timestamp": "2025-12-04T17:48:39.841008+00:00",
        "meta_object_name": "INTELSAT 31 (IS-31)",
        "meta_object_id": "2016-035A",
        "meta_epoch": "2025-12-03T13:18:15.813216",
        "meta_mean_motion": 1.0027005,
        "meta_eccentricity": 0.00020986,
        "meta_inclination": 0.0165,
        "meta_ra_of_asc_node": 271.6332,
        "meta_arg_of_pericenter": 305.8436,
        "meta_mean_anomaly": 319.6781,
        "meta_ephemeris_type": 0,
        "meta_classification_type": "U",
        "meta_norad_cat_id": 41581,
        "meta_element_set_no": 999,
        "meta_rev_at_epoch": 3472,
        "meta_bstar": 0,
        "meta_mean_motion_dot": -1.33e-06,
        "meta_mean_motion_ddot": 0,
        "tle_line1": "1 41581U 16035A   25337.55434969 -.00000133  00000+0  00000+0 0  9995",
        "tle_line2": "2 41581   0.0165 271.6332 0002098 305.8436 319.6781  1.00270050 34721"
      },
      "geometry": {
        "type": "Point",
        "coordinates": [
          -114.09060684884108,
          -0.023062526816197814
        ]
      }
    },
    {
      "type": "Feature",
      "properties": {
        "norad_id": 41747,
        "name": "INTELSAT 36 (IS-36)",
        "group": "intelsat",
        "lat": 0.030654530190410124,
        "lon": 49.47078979806953,
        "alt_km": 35787.257280269354,
        "timestamp": "2025-12-04T17:48:39.841020+00:00",
        "meta_object_name": "INTELSAT 36 (IS-36)",
        "meta_object_id": "2016-053A",
        "meta_epoch": "2025-12-04T01:57:38.699424",
        "meta_mean_motion": 1.00268863,
        "meta_eccentricity": 0.00015024,
        "meta_inclination": 0.0131,
        "meta_ra_of_asc_node": 2.8626,
        "meta_arg_of_pericenter": 313.3444,
        "meta_mean_anomaly": 214.8679,
        "meta_ephemeris_type": 0,
        "meta_classification_type": "U",
        "meta_norad_cat_id": 41747,
        "meta_element_set_no": 999,
        "meta_rev_at_epoch": 3399,
        "meta_bstar": 0,
        "meta_mean_motion_dot": -8e-08,
        "meta_mean_motion_ddot": 0,
        "tle_line1": "1 41747U 16053A   25338.08169791 -.00000008  00000+0  00000+0 0  9997",
        "tle_line2": "2 41747   0.0131   2.8626 0001502 313.3444 214.8679  1.00268863 33999"
      },
      "geometry": {
        "type": "Point",
        "coordinates": [
          49.47078979806953,
          0.030654530190410124
        ]
      }
    },
    {
      "type": "Feature",
      "properties": {
        "norad_id": 41945,
        "name": "INTELSAT 32E (IS-32E)",
        "group": "intelsat",
        "lat": -0.02463779936253992,
        "lon": -62.22555515419022,
        "alt_km": 35785.941273086624,
        "timestamp": "2025-12-04T17:48:39.841031+00:00",
        "meta_object_name": "INTELSAT 32E (IS-32E)",
        "meta_object_id": "2017-007B",
        "meta_epoch": "2025-12-04T06:40:19.217280",
        "meta_mean_motion": 1.00269217,
        "meta_eccentricity": 2.819e-05,
        "meta_inclination": 0.0333,
        "meta_ra_of_asc_node": 74.4043,
        "meta_arg_of_pericenter": 262.5397,
        "meta_mean_anomaly": 153.3136,
        "meta_ephemeris_type": 0,
        "meta_classification_type": "U",
        "meta_norad_cat_id": 41945,
        "meta_element_set_no": 999,
        "meta_rev_at_epoch": 3227,
        "meta_bstar": 0,
        "meta_mean_motion_dot": -2.53e-06,
        "meta_mean_motion_ddot": 0,
        "tle_line1": "1 41945U 17007B   25338.27800020 -.00000253  00000+0  00000+0 0  9997",
        "tle_line2": "2 41945   0.0333  74.4043 0000281 262.5397 153.3136  1.00269217 32275"
      },
      "geometry": {
        "type": "Point",
        "coordinates": [
          -62.22555515419022,
          -0.02463779936253992
        ]
      }
    },
    {
      "type": "Feature",
      "properties": {
        "norad_id": 42818,
        "name": "INTELSAT 35E (IS-35E)",
        "group": "intelsat",
        "lat": -0.01295147445799382,
        "lon": -53.502883714186915,
        "alt_km": 35779.597565763106,
        "timestamp": "2025-12-04T17:48:39.841043+00:00",
        "meta_object_name": "INTELSAT 35E (IS-35E)",
        "meta_object_id": "2017-041A",
        "meta_epoch": "2025-12-04T06:42:48.977856",
        "meta_mean_motion": 1.00270645,
        "meta_eccentricity": 0.0002436,
        "meta_inclination": 0.0021,
        "meta_ra_of_asc_node": 9.1743,
        "meta_arg_of_pericenter": 248.9142,
        "meta_mean_anomaly": 241.4921,
        "meta_ephemeris_type": 0,
        "meta_classification_type": "U",
        "meta_norad_cat_id": 42818,
        "meta_element_set_no": 999,
        "meta_rev_at_epoch": 3086,
        "meta_bstar": 0,
        "meta_mean_motion_dot": -2.22e-06,
        "meta_mean_motion_ddot": 0,
        "tle_line1": "1 42818U 17041A   25338.27973354 -.00000222  00000+0  00000+0 0  9992",
        "tle_line2": "2 42818   0.0021   9.1743 0002436 248.9142 241.4921  1.00270645 30862"
      },
      "geometry": {
        "type": "Point",
        "coordinates": [
          -53.502883714186915,
          -0.01295147445799382
        ]
      }
    },
    {
      "type": "Feature",
      "properties": {
        "norad_id": 42950,
        "name": "INTELSAT 37E (IS-37E)",
        "group": "intelsat",
        "lat": 0.0011978720868717069,
        "lon": -36.99955983772575,
        "alt_km": 35782.620375253064,
        "timestamp": "2025-12-04T17:48:39.841054+00:00",
        "meta_object_name": "INTELSAT 37E (IS-37E)",
        "meta_object_id": "2017-059A",
        "meta_epoch": "2025-12-04T01:39:17.233344",
        "meta_mean_motion": 1.00270752,
        "meta_eccentricity": 0.00034695,
        "meta_inclination": 0.0176,
        "meta_ra_of_asc_node": 319.8059,
        "meta_arg_of_pericenter": 287.9884,
        "meta_mean_anomaly": 192.1826,
        "meta_ephemeris_type": 0,
        "meta_classification_type": "U",
        "meta_norad_cat_id": 42950,
        "meta_element_set_no": 999,
        "meta_rev_at_epoch": 3010,
        "meta_bstar": 0,
        "meta_mean_motion_dot": -1.24e-06,
        "meta_mean_motion_ddot": 0,
        "tle_line1": "1 42950U 17059A   25338.06894946 -.00000124  00000+0  00000+0 0  9995",
        "tle_line2": "2 42950   0.0176 319.8059 0003469 287.9884 192.1826  1.00270752 30106"
      },
      "geometry": {
        "type": "Point",
        "coordinates": [
          -36.99955983772575,
          0.0011978720868717069
        ]
      }
    },
    {
      "type": "Feature",
      "properties": {
        "norad_id": 43632,
        "name": "AZERSPACE 2 (IS-38)",
        "group": "intelsat",
        "lat": 0.030913613119243268,
        "lon": 26.087452622380777,
        "alt_km": 35790.38733700683,
        "timestamp": "2025-12-04T17:48:39.841071+00:00",
        "meta_object_name": "AZERSPACE 2 (IS-38)",
        "meta_object_id": "2018-074A",
        "meta_epoch": "2025-12-03T17:23:40.331904",
        "meta_mean_motion": 1.0027174,
        "meta_eccentricity": 0.00017416,
        "meta_inclination": 0.0176,
        "meta_ra_of_asc_node": 347.6047,
        "meta_arg_of_pericenter": 271.7152,
        "meta_mean_anomaly": 119.5202,
        "meta_ephemeris_type": 0,
        "meta_classification_type": "U",
        "meta_norad_cat_id": 43632,
        "meta_element_set_no": 999,
        "meta_rev_at_epoch": 2648,
        "meta_bstar": 0,
        "meta_mean_motion_dot": 1.54e-06,
        "meta_mean_motion_ddot": 0,
        "tle_line1": "1 43632U 18074A   25337.72477236  .00000154  00000+0  00000+0 0  9994",
        "tle_line2": "2 43632   0.0176 347.6047 0001741 271.7152 119.5202  1.00271740 26485"
      },
      "geometry": {
        "type": "Point",
        "coordinates": [
          26.087452622380777,
          0.030913613119243268
        ]
      }
    },
    {
      "type": "Feature",
      "properties": {
        "norad_id": 43633,
        "name": "HORIZONS-3E",
        "group": "intelsat",
        "lat": -0.017322133696422607,
        "lon": 149.95735337417196,
        "alt_km": 35792.75444879022,
        "timestamp": "2025-12-04T17:48:39.841083+00:00",
        "meta_object_name": "HORIZONS-3E",
        "meta_object_id": "2018-074B",
        "meta_epoch": "2025-12-04T05:58:14.782080",
        "meta_mean_motion": 1.00264233,
        "meta_eccentricity": 0.00014859,
        "meta_inclination": 0.0356,
        "meta_ra_of_asc_node": 203.2483,
        "meta_arg_of_pericenter": 83.7127,
        "meta_mean_anomaly": 44.9509,
        "meta_ephemeris_type": 0,
        "meta_classification_type": "U",
        "meta_norad_cat_id": 43633,
        "meta_element_set_no": 999,
        "meta_rev_at_epoch": 2638,
        "meta_bstar": 0,
        "meta_mean_motion_dot": -1.6e-07,
        "meta_mean_motion_ddot": 0,
        "tle_line1": "1 43633U 18074B   25338.24878220 -.00000016  00000+0  00000+0 0  9999",
        "tle_line2": "2 43633   0.0356 203.2483 0001485  83.7127  44.9509  1.00264233 26384"
      },
      "geometry": {
        "type": "Point",
        "coordinates": [
          149.95735337417196,
          -0.017322133696422607
        ]
      }
    }
  ]
}